FENGYUN 1C DEB          
1 29869U 99025FP  17345.94586476  .00000179  00000-0  81093-4 0  9990
2 29869  98.9858 136.7556 0092434 272.9408 246.3513 14.31782931569575
